[{"OBJECT_NAME":"METEOR-M 2","OBJECT_ID":"2014-037A","EPOCH":"2026-03-09T23:09:30.537792","MEAN_MOTION":14.21428734,"ECCENTRICITY":0.00053128,"INCLINATION":98.5035,"RA_OF_ASC_NODE":48.2672,"ARG_OF_PERICENTER":336.7967,"MEAN_ANOMALY":23.2971,"EPHEMERIS_TYPE":0,"CLASSIFICATION_TYPE":"U","NORAD_CAT_ID":40069,"ELEMENT_SET_NO":999,"REV_AT_EPOCH":60522,"BSTAR":2.6040138e-5,"MEAN_MOTION_DOT":1.5e-7,"MEAN_MOTION_DDOT":0},{"OBJECT_NAME":"FENGYUN 1C DEB","OBJECT_ID":"1999-025UN","EPOCH":"2026-03-09T05:24:31.860864","MEAN_MOTION":14.30016245,"ECCENTRICITY":0.00420756,"INCLINATION":98.8336,"RA_OF_ASC_NODE":157.7098,"ARG_OF_PERICENTER":109.9438,"MEAN_ANOMALY":305.766,"EPHEMERIS_TYPE":0,"CLASSIFICATION_TYPE":"U","NORAD_CAT_ID":30181,"ELEMENT_SET_NO":999,"REV_AT_EPOCH":98747,"BSTAR":0.0017343869,"MEAN_MOTION_DOT":4.476e-5,"MEAN_MOTION_DDOT":0}]
